[{"OBJECT_NAME":"STRIX-4","OBJECT_ID":"2024-137A","EPOCH":"2026-03-09T15:41:49.501824","MEAN_MOTION":15.29026224,"ECCENTRICITY":0.00168396,"INCLINATION":43.0134,"RA_OF_ASC_NODE":129.8162,"ARG_OF_PERICENTER":5.2738,"MEAN_ANOMALY":354.8289,"EPHEMERIS_TYPE":0,"CLASSIFICATION_TYPE":"U","NORAD_CAT_ID":60352,"ELEMENT_SET_NO":999,"REV_AT_EPOCH":8876,"BSTAR":0.00071819834,"MEAN_MOTION_DOT":0.0002053,"MEAN_MOTION_DDOT":0},{"OBJECT_NAME":"STARLINK-32687","OBJECT_ID":"2025-075T","EPOCH":"2026-03-09T13:01:13.308096","MEAN_MOTION":15.27591814,"ECCENTRICITY":0.0002249,"INCLINATION":42.9983,"RA_OF_ASC_NODE":271.5462,"ARG_OF_PERICENTER":304.0179,"MEAN_ANOMALY":56.0458,"EPHEMERIS_TYPE":0,"CLASSIFICATION_TYPE":"U","NORAD_CAT_ID":63565,"ELEMENT_SET_NO":999,"REV_AT_EPOCH":5191,"BSTAR":0.00082711081,"MEAN_MOTION_DOT":0.00022577,"MEAN_MOTION_DDOT":0}]
