STRIX-4                 
1 60352U 24137A   26068.65404516  .00020530  00000+0  71820-3 0  9996
2 60352  43.0134 129.8162 0016840   5.2738 354.8289 15.29026223 88766
STARLINK-32687          
1 63565U 25075T   26068.54251514  .00022577  00000+0  82711-3 0  9997
2 63565  42.9983 271.5462 0002249 304.0179  56.0458 15.27591814 51917
